[{"OBJECT_NAME":"YUNYAO-1 44","OBJECT_ID":"2025-059B","EPOCH":"2026-03-09T23:37:33.233088","MEAN_MOTION":15.10344945,"ECCENTRICITY":0.00180831,"INCLINATION":97.6069,"RA_OF_ASC_NODE":250.8958,"ARG_OF_PERICENTER":135.5449,"MEAN_ANOMALY":224.7236,"EPHEMERIS_TYPE":0,"CLASSIFICATION_TYPE":"U","NORAD_CAT_ID":63345,"ELEMENT_SET_NO":999,"REV_AT_EPOCH":5332,"BSTAR":0.0003556422,"MEAN_MOTION_DOT":5.791e-5,"MEAN_MOTION_DDOT":0},{"OBJECT_NAME":"NOAA 16 DEB","OBJECT_ID":"2000-055SB","EPOCH":"2026-02-27T15:08:14.620992","MEAN_MOTION":15.12270094,"ECCENTRICITY":0.00176542,"INCLINATION":98.8281,"RA_OF_ASC_NODE":211.5375,"ARG_OF_PERICENTER":315.8201,"MEAN_ANOMALY":44.1615,"EPHEMERIS_TYPE":0,"CLASSIFICATION_TYPE":"U","NORAD_CAT_ID":42383,"ELEMENT_SET_NO":999,"REV_AT_EPOCH":51816,"BSTAR":0.010800989,"MEAN_MOTION_DOT":0.00192328,"MEAN_MOTION_DDOT":0}]
